[{"OBJECT_NAME":"STARLINK-32779","OBJECT_ID":"2025-034B","EPOCH":"2026-03-09T17:04:26.543712","MEAN_MOTION":15.30191894,"ECCENTRICITY":0.0001004,"INCLINATION":53.1574,"RA_OF_ASC_NODE":271.2683,"ARG_OF_PERICENTER":65.7568,"MEAN_ANOMALY":294.3537,"EPHEMERIS_TYPE":0,"CLASSIFICATION_TYPE":"U","NORAD_CAT_ID":63030,"ELEMENT_SET_NO":999,"REV_AT_EPOCH":5890,"BSTAR":0.0013815043,"MEAN_MOTION_DOT":0.00040771,"MEAN_MOTION_DDOT":0},{"OBJECT_NAME":"TRANSPORTER-1 OBJECT Z","OBJECT_ID":"2021-006Z","EPOCH":"2026-03-09T22:55:57.522432","MEAN_MOTION":15.30965056,"ECCENTRICITY":0.00100878,"INCLINATION":97.2377,"RA_OF_ASC_NODE":113.4736,"ARG_OF_PERICENTER":179.6869,"MEAN_ANOMALY":180.438,"EPHEMERIS_TYPE":0,"CLASSIFICATION_TYPE":"U","NORAD_CAT_ID":47436,"ELEMENT_SET_NO":999,"REV_AT_EPOCH":28420,"BSTAR":0.00024088983,"MEAN_MOTION_DOT":7.143e-5,"MEAN_MOTION_DDOT":0}]
